{
  "norad_id": 54762,
  "name": "STARLINK-5214",
  "history": [
    {
      "epoch": "2026-03-28T20:53:31.639776Z",
      "apogee_km": 540.6722342940902,
      "perigee_km": 538.9384595830998,
      "latitude_deg": -2.6472451676205762e-05,
      "longitude_deg": 178.42170303344503,
      "height_km": 540.6386818294332,
      "semi_major_axis_km": 6917.942346938595,
      "eccentricity": 0.00012531,
      "inclination_deg": 53.2175,
      "raan_deg": 318.0883,
      "arg_perigee_deg": 85.8635,
      "mean_anomaly_deg": 274.25,
      "mean_motion_rev_day": 15.0881973
    },
    {
      "epoch": "2026-03-29T01:39:41.198976Z",
      "apogee_km": 540.6915094553069,
      "perigee_km": 538.9025317175829,
      "latitude_deg": 1.7273073571532945e-05,
      "longitude_deg": 105.79363644902055,
      "height_km": 540.6201535681676,
      "semi_major_axis_km": 6917.934020586445,
      "eccentricity": 0.0001293,
      "inclination_deg": 53.2177,
      "raan_deg": 317.1959,
      "arg_perigee_deg": 85.3384,
      "mean_anomaly_deg": 274.7756,
      "mean_motion_rev_day": 15.08822454
    },
    {
      "epoch": "2026-03-29T23:55:05.133216Z",
      "apogee_km": 540.5958122910488,
      "perigee_km": 538.8747840207134,
      "latitude_deg": -1.6936473482314322e-05,
      "longitude_deg": 126.86843741410578,
      "height_km": 540.701269280782,
      "semi_major_axis_km": 6917.87229815588,
      "eccentricity": 0.00012439,
      "inclination_deg": 53.2169,
      "raan_deg": 313.0345,
      "arg_perigee_deg": 94.676,
      "mean_anomaly_deg": 265.4374,
      "mean_motion_rev_day": 15.08842647
    },
    {
      "epoch": "2026-03-30T07:52:00.718176Z",
      "apogee_km": 540.5699038232151,
      "perigee_km": 538.8768266774241,
      "latitude_deg": 6.718018011182371e-05,
      "longitude_deg": 5.823651806823141,
      "height_km": 540.6637766412896,
      "semi_major_axis_km": 6917.86036525032,
      "eccentricity": 0.00012237,
      "inclination_deg": 53.2166,
      "raan_deg": 311.5477,
      "arg_perigee_deg": 93.0206,
      "mean_anomaly_deg": 267.0927,
      "mean_motion_rev_day": 15.08846551
    },
    {
      "epoch": "2026-03-30T20:35:05.480448Z",
      "apogee_km": 540.5535008809802,
      "perigee_km": 538.8548941533418,
      "latitude_deg": -5.182712477305277e-05,
      "longitude_deg": 172.15251186165975,
      "height_km": 540.6422767327022,
      "semi_major_axis_km": 6917.841197517161,
      "eccentricity": 0.00012277,
      "inclination_deg": 53.2163,
      "raan_deg": 309.1688,
      "arg_perigee_deg": 92.8544,
      "mean_anomaly_deg": 267.2588,
      "mean_motion_rev_day": 15.08852822
    },
    {
      "epoch": "2026-03-31T14:04:19.786368Z",
      "apogee_km": 540.6807546724676,
      "perigee_km": 538.7700410781736,
      "latitude_deg": -3.085397086665959e-05,
      "longitude_deg": -94.14685774422568,
      "height_km": 540.9395583839157,
      "semi_major_axis_km": 6917.86239787532,
      "eccentricity": 0.0001381,
      "inclination_deg": 53.2154,
      "raan_deg": 305.8972,
      "arg_perigee_deg": 109.4797,
      "mean_anomaly_deg": 250.6344,
      "mean_motion_rev_day": 15.08845886
    },
    {
      "epoch": "2026-04-01T20:16:39.123264Z",
      "apogee_km": 540.571338972939,
      "perigee_km": 538.8335777010043,
      "latitude_deg": 3.454758068259957e-05,
      "longitude_deg": 165.88273158566906,
      "height_km": 540.3231306929958,
      "semi_major_axis_km": 6917.839458336971,
      "eccentricity": 0.0001256,
      "inclination_deg": 53.2162,
      "raan_deg": 300.2478,
      "arg_perigee_deg": 71.5387,
      "mean_anomaly_deg": 288.5742,
      "mean_motion_rev_day": 15.08853391
    },
    {
      "epoch": "2026-04-02T20:07:25.887648Z",
      "apogee_km": 540.6667522073485,
      "perigee_km": 538.8264568108771,
      "latitude_deg": 6.326164933964025e-05,
      "longitude_deg": 162.7467684092775,
      "height_km": 540.7023518713443,
      "semi_major_axis_km": 6917.883604509112,
      "eccentricity": 0.00013301,
      "inclination_deg": 53.2156,
      "raan_deg": 295.786,
      "arg_perigee_deg": 93.7511,
      "mean_anomaly_deg": 266.3634,
      "mean_motion_rev_day": 15.08838948
    },
    {
      "epoch": "2026-04-03T18:22:49.133280Z",
      "apogee_km": 540.6253225097771,
      "perigee_km": 538.7370348597224,
      "latitude_deg": -3.7344959385967764e-05,
      "longitude_deg": -176.17780335848454,
      "height_km": 540.816129859263,
      "semi_major_axis_km": 6917.818178684749,
      "eccentricity": 0.00013648,
      "inclination_deg": 53.2156,
      "raan_deg": 291.6224,
      "arg_perigee_deg": 104.6867,
      "mean_anomaly_deg": 255.4276,
      "mean_motion_rev_day": 15.08860353
    },
    {
      "epoch": "2026-04-05T13:18:15.750144Z",
      "apogee_km": 540.665171333816,
      "perigee_km": 538.862919753431,
      "latitude_deg": 5.479192632790887e-05,
      "longitude_deg": -109.82976892549434,
      "height_km": 540.7686806423893,
      "semi_major_axis_km": 6917.901045543624,
      "eccentricity": 0.00013026,
      "inclination_deg": 53.2167,
      "raan_deg": 283.5941,
      "arg_perigee_deg": 96.9426,
      "mean_anomaly_deg": 263.1715,
      "mean_motion_rev_day": 15.08833242
    },
    {
      "epoch": "2026-04-05T19:39:48.385728Z",
      "apogee_km": 540.6351278333914,
      "perigee_km": 538.8848998888852,
      "latitude_deg": -3.786483266214062e-05,
      "longitude_deg": 153.33392256779237,
      "height_km": 540.7369465646781,
      "semi_major_axis_km": 6917.8970138611385,
      "eccentricity": 0.0001265,
      "inclination_deg": 53.2164,
      "raan_deg": 282.405,
      "arg_perigee_deg": 95.3235,
      "mean_anomaly_deg": 264.7901,
      "mean_motion_rev_day": 15.08834561
    },
    {
      "epoch": "2026-04-07T11:24:26.813376Z",
      "apogee_km": 540.678455081138,
      "perigee_km": 538.8091053367107,
      "latitude_deg": 4.8444988981424165e-05,
      "longitude_deg": -91.89306105144408,
      "height_km": 540.7187477904555,
      "semi_major_axis_km": 6917.880780208924,
      "eccentricity": 0.00013511,
      "inclination_deg": 53.216,
      "raan_deg": 274.9703,
      "arg_perigee_deg": 94.8731,
      "mean_anomaly_deg": 265.2416,
      "mean_motion_rev_day": 15.08839872
    },
    {
      "epoch": "2026-04-07T20:56:45.509280Z",
      "apogee_km": 540.6689416835552,
      "perigee_km": 538.8107999560534,
      "latitude_deg": 1.8054692759097527e-05,
      "longitude_deg": 122.85288221691494,
      "height_km": 540.6877107666027,
      "semi_major_axis_km": 6917.876870819804,
      "eccentricity": 0.0001343,
      "inclination_deg": 53.2157,
      "raan_deg": 273.1859,
      "arg_perigee_deg": 93.2265,
      "mean_anomaly_deg": 266.8881,
      "mean_motion_rev_day": 15.08841151
    },
    {
      "epoch": "2026-04-08T11:15:13.858560Z",
      "apogee_km": 540.6693246016321,
      "perigee_km": 538.8109060933657,
      "latitude_deg": -5.85106204743161e-05,
      "longitude_deg": -95.02880207281795,
      "height_km": 540.6965150760789,
      "semi_major_axis_km": 6917.877115347499,
      "eccentricity": 0.00013432,
      "inclination_deg": 53.2165,
      "raan_deg": 270.51,
      "arg_perigee_deg": 93.7488,
      "mean_anomaly_deg": 266.3657,
      "mean_motion_rev_day": 15.08841071
    },
    {
      "epoch": "2026-04-09T20:38:19.349952Z",
      "apogee_km": 540.645786965184,
      "perigee_km": 538.8125524302131,
      "latitude_deg": 6.2467663879972206e-06,
      "longitude_deg": 116.58279370703136,
      "height_km": 540.646279998417,
      "semi_major_axis_km": 6917.866169697698,
      "eccentricity": 0.0001325,
      "inclination_deg": 53.2167,
      "raan_deg": 264.2655,
      "arg_perigee_deg": 91.3396,
      "mean_anomaly_deg": 268.7748,
      "mean_motion_rev_day": 15.08844652
    },
    {
      "epoch": "2026-04-09T20:38:19.350816Z",
      "apogee_km": 540.6455102505352,
      "perigee_km": 538.8128291448602,
      "latitude_deg": 9.957102525729265e-06,
      "longitude_deg": 116.58279285594026,
      "height_km": 540.6462735267585,
      "semi_major_axis_km": 6917.866169697698,
      "eccentricity": 0.00013246,
      "inclination_deg": 53.2167,
      "raan_deg": 264.2655,
      "arg_perigee_deg": 91.3396,
      "mean_anomaly_deg": 268.7748,
      "mean_motion_rev_day": 15.08844652
    },
    {
      "epoch": "2026-04-11T20:19:53.992416Z",
      "apogee_km": 540.585474881028,
      "perigee_km": 538.9348646163262,
      "latitude_deg": 1.977601926649435e-05,
      "longitude_deg": 110.30817594119772,
      "height_km": 540.630983263479,
      "semi_major_axis_km": 6917.897169748677,
      "eccentricity": 0.0001193,
      "inclination_deg": 53.2164,
      "raan_deg": 255.3439,
      "arg_perigee_deg": 88.2633,
      "mean_anomaly_deg": 271.8496,
      "mean_motion_rev_day": 15.0883451
    },
    {
      "epoch": "2026-04-13T02:32:13.617888Z",
      "apogee_km": 540.5498771568937,
      "perigee_km": 538.9528134534976,
      "latitude_deg": -6.552476989931751e-05,
      "longitude_deg": 10.33594521469949,
      "height_km": 540.5742370978746,
      "semi_major_axis_km": 6917.888345305196,
      "eccentricity": 0.00011543,
      "inclination_deg": 53.216,
      "raan_deg": 249.694,
      "arg_perigee_deg": 84.7574,
      "mean_anomaly_deg": 275.3549,
      "mean_motion_rev_day": 15.08837397
    },
    {
      "epoch": "2026-04-14T15:06:06.420672Z",
      "apogee_km": 540.6653311898444,
      "perigee_km": 538.8542258132329,
      "latitude_deg": -1.0674911203412806e-05,
      "longitude_deg": 173.52601834300498,
      "height_km": 540.6519545146674,
      "semi_major_axis_km": 6917.896778501538,
      "eccentricity": 0.0001309,
      "inclination_deg": 53.2178,
      "raan_deg": 242.8557,
      "arg_perigee_deg": 89.7695,
      "mean_anomaly_deg": 270.3447,
      "mean_motion_rev_day": 15.08834638
    },
    {
      "epoch": "2026-04-15T16:32:16.290816Z",
      "apogee_km": 540.5771250006128,
      "perigee_km": 538.9099157951969,
      "latitude_deg": 7.302098365644702e-05,
      "longitude_deg": 146.18173442880266,
      "height_km": 540.6060681421358,
      "semi_major_axis_km": 6917.880520397905,
      "eccentricity": 0.0001205,
      "inclination_deg": 53.2173,
      "raan_deg": 238.0971,
      "arg_perigee_deg": 87.707,
      "mean_anomaly_deg": 272.4061,
      "mean_motion_rev_day": 15.08839957
    }
  ]
}